NORAD_CAT_ID,OBJECT_NAME,OBJECT_TYPE,EPOCH,MEAN_MOTION,ECCENTRICITY,INCLINATION,RA_OF_ASC_NODE,ARG_OF_PERICENTER,MEAN_ANOMALY,BSTAR,MEAN_MOTION_DOT,MEAN_MOTION_DDOT,TLE_LINE0,TLE_LINE1,TLE_LINE2,SEMIMAJOR_AXIS,PERIOD,APOGEE,PERIGEE,DECAYED
52090.0,STARLINK-3712,PAYLOAD,2022-06-15 06:00:00,15.08769029,0.000212,53.2163,89.8369,43.2675,255.7979,0.00587,0.00094202,0.0,0 STARLINK-3712,1 52090U 22029C   22166.25001157  .00094202  00000-0  58700-2 0  9998,2 52090  53.2163  89.8369 0002120  43.2675 255.7979 15.08769029 14818,6918.097,95.442,541.429,538.496,0.0
52090.0,STARLINK-3712,PAYLOAD,2022-06-15 14:00:01,15.08809161,0.0001915,53.2165,88.3398,45.4935,265.1298,0.0022329,0.00035398,0.0,0 STARLINK-3712,1 52090U 22029C   22166.58334491  .00035398  00000-0  22329-2 0  9993,2 52090  53.2165  88.3398 0001915  45.4935 265.1298 15.08809161  1301,6917.975,95.44,541.164,538.515,0.0
52090.0,STARLINK-3712,PAYLOAD,2022-06-15 22:00:00,15.08853348,0.0001981,53.2167,86.8441,46.9017,275.2924,-0.00073635,-0.00011993,0.0,0 STARLINK-3712,1 52090U 22029C   22166.91667824 -.00011993  00000-0 -73635-3 0  9993,2 52090  53.2167  86.8441 0001981  46.9017 275.2924 15.08853348 14910,6917.84,95.437,541.075,538.3340000000002,0.0
52090.0,STARLINK-3712,PAYLOAD,2022-06-16 02:00:01,15.08846798,0.00021,53.2165,86.0969,44.6799,103.3239,0.00080886,0.00012611,0.0,0 STARLINK-3712,1 52090U 22029C   22167.08334491  .00012611  00000-0  80886-3 0  9995,2 52090  53.2165  86.0969 0002100  44.6799 103.3239 15.08846798  1301,6917.86,95.437,541.177,538.2719999999998,0.0
52090.0,STARLINK-3712,PAYLOAD,2022-06-19 14:00:01,15.08835907,0.0001647,53.2155,70.3829,45.0863,44.6757,0.00091873,0.00014362,0.0,0 STARLINK-3712,1 52090U 22029C   22170.58334491  .00014362  00000-0  91873-3 0  9997,2 52090  53.2155  70.3829 0001647  45.0863  44.6757 15.08835907  1305,6917.893,95.438,540.8969999999998,538.619,0.0
52090.0,STARLINK-3712,PAYLOAD,2022-06-19 22:00:00,15.08869259,0.0001695,53.2155,68.8877,41.6494,59.7137,-0.003554,-0.00056452,0.0,0 STARLINK-3712,1 52090U 22029C   22170.91667824 -.00056452  00000-0 -35540-2 0  9999,2 52090  53.2155  68.8877 0001695  41.6494  59.7137 15.08869259  1301,6917.791,95.436,540.8290000000002,538.4830000000002,0.0
52090.0,STARLINK-3712,PAYLOAD,2022-06-20 14:00:01,15.08832419,0.0001643,53.2153,65.8934,44.1886,80.3738,0.00015378,2.1600000000000007e-05,0.0,0 STARLINK-3712,1 52090U 22029C   22171.58334491  .00002160  00000-0  15378-3 0  9997,2 52090  53.2153  65.8934 0001643  44.1886  80.3738 15.08832419  1301,6917.904,95.438,540.905,538.632,0.0
52090.0,STARLINK-3712,PAYLOAD,2022-06-20 22:00:00,15.08836107,0.0001846,53.2154,64.3983,44.8909,91.261,-0.00097323,-0.00015742,0.0,0 STARLINK-3712,1 52090U 22029C   22171.91667824 -.00015742  00000-0 -97323-3 0  9995,2 52090  53.2154  64.3983 0001846  44.8909  91.2610 15.08836107 15671,6917.892,95.438,541.034,538.48,0.0
52090.0,STARLINK-3712,PAYLOAD,2022-06-21 14:00:01,15.08837687,0.000182,53.2156,61.4039,48.276,111.0611,0.00061559,9.522e-05,0.0,0 STARLINK-3712,1 52090U 22029C   22172.58334491  .00009522  00000-0  61559-3 0  9999,2 52090  53.2156  61.4039 0001820  48.2760 111.0611 15.08837687 15775,6917.887,95.438,541.012,538.493,0.0
52090.0,STARLINK-3712,PAYLOAD,2022-06-21 22:00:00,15.08837644,0.0002029,53.2158,59.909,47.7001,123.238,-0.00072013,-0.0001173,0.0,0 STARLINK-3712,1 52090U 22029C   22172.91667824 -.00011730  00000-0 -72013-3 0  9998,2 52090  53.2158  59.9090 0002029  47.7001 123.2380 15.08837644  1305,6917.888000000001,95.438,541.156,538.349,0.0
52090.0,STARLINK-3712,PAYLOAD,2022-06-22 14:00:01,15.08808256,0.0001859,53.2162,56.9146,48.9321,145.1964,0.0025086,0.00039828,0.0,0 STARLINK-3712,1 52090U 22029C   22173.58334491  .00039828  00000-0  25086-2 0  9996,2 52090  53.2162  56.9146 0001859  48.9321 145.1964 15.08808256 15928,6917.977,95.44,541.128,538.556,0.0
52090.0,STARLINK-3712,PAYLOAD,2022-06-22 22:00:00,15.08838722,0.000204,53.2165,55.4198,46.7539,158.9511,-0.00036855,-6.149e-05,0.0,0 STARLINK-3712,1 52090U 22029C   22173.91667824 -.00006149  00000-0 -36855-3 0  9991,2 52090  53.2165  55.4198 0002040  46.7539 158.9511 15.08838722  1300,6917.884,95.438,541.161,538.3380000000002,0.0
52090.0,STARLINK-3712,PAYLOAD,2022-06-23 06:00:00,15.08853532,0.0002048,53.2164,53.9234,44.9451,172.3449,-0.00048414,-7.988e-05,0.0,0 STARLINK-3712,1 52090U 22029C   22174.25001157 -.00007988  00000-0 -48414-3 0  9996,2 52090  53.2164  53.9234 0002048  44.9451 172.3449 15.08853532 16025,6917.839,95.437,541.121,538.2869999999998,0.0
52090.0,STARLINK-3712,PAYLOAD,2022-06-23 14:00:01,15.08840014,0.0001867,53.2168,52.4255,49.7182,179.1835,0.00019076,2.749e-05,0.0,0 STARLINK-3712,1 52090U 22029C   22174.58334491  .00002749  00000-0  19076-3 0  9992,2 52090  53.2168  52.4255 0001867  49.7182 179.1835 15.08840014  1308,6917.88,95.438,541.0369999999998,538.4540000000002,0.0
52090.0,STARLINK-3712,PAYLOAD,2022-06-23 22:00:00,15.08833944,0.0001995,53.217,50.9308,45.4036,195.1007,-0.0002583,-4.396e-05,0.0,0 STARLINK-3712,1 52090U 22029C   22174.91667824 -.00004396  00000-0 -25830-3 0  9995,2 52090  53.2170  50.9308 0001995  45.4036 195.1007 15.08833944  1309,6917.899,95.438,541.144,538.384,0.0
52090.0,STARLINK-3712,PAYLOAD,2022-06-24 06:00:02,15.08850917,0.000199,53.2169,49.4342,44.609,207.5356,-0.0011687,-0.00018846,0.0,0 STARLINK-3712,1 52090U 22029C   22175.25002315 -.00018846  00000-0 -11687-2 0  9990,2 52090  53.2169  49.4342 0001990  44.6090 207.5356 15.08850917 16179,6917.847,95.437,541.089,538.335,0.0
52090.0,STARLINK-3712,PAYLOAD,2022-06-24 14:00:01,15.08838784,0.0001882,53.2172,47.9365,51.5085,212.171,-0.00020328,-3.522e-05,0.0,0 STARLINK-3712,1 52090U 22029C   22175.58334491 -.00003522  00000-0 -20328-3 0  9997,2 52090  53.2172  47.9365 0001882  51.5085 212.1710 15.08838784  1305,6917.884,95.438,541.0509999999998,538.447,0.0
52090.0,STARLINK-3712,PAYLOAD,2022-06-24 22:00:01,15.08821623,0.0002111,53.2172,46.442,49.4111,225.9272,-0.00036518,-6.093e-05,0.0,0 STARLINK-3712,1 52090U 22029C   22175.91668981 -.00006093  00000-0 -36518-3 0  9992,2 52090  53.2172  46.4420 0002111  49.4111 225.9272 15.08821623  1302,6917.937,95.439,541.262,538.341,0.0
52090.0,STARLINK-3712,PAYLOAD,2022-06-25 14:00:01,15.08819269,0.000194,53.2172,43.4478,55.2737,243.1575,0.0026367,0.00041901,0.0,0 STARLINK-3712,1 52090U 22029C   22176.58334491  .00041901  00000-0  26367-2 0  9997,2 52090  53.2172  43.4478 0001940  55.2737 243.1575 15.08819269 16374,6917.944,95.439,541.151,538.467,0.0
52090.0,STARLINK-3712,PAYLOAD,2022-06-25 22:00:00,15.08844118,0.0002101,53.217,41.9533,51.2537,258.77,8.1301e-06,-1.59e-06,0.0,0 STARLINK-3712,1 52090U 22029C   22176.91667824 -.00000159  00000-0  81301-5 0  9996,2 52090  53.2170  41.9533 0002101  51.2537 258.7700 15.08844118  1301,6917.868,95.437,541.186,538.279,0.0
52090.0,STARLINK-3712,PAYLOAD,2022-06-26 06:00:00,15.08869384,0.0002025,53.2165,40.4564,50.8533,270.7651,-0.0018373,-0.00029434,0.0,0 STARLINK-3712,1 52090U 22029C   22177.25001157 -.00029434  00000-0 -18373-2 0  9999,2 52090  53.2165  40.4564 0002025  50.8533 270.7651 15.08869384 16474,6917.791,95.436,541.056,538.255,0.0
52090.0,STARLINK-3712,PAYLOAD,2022-06-26 14:00:01,15.08852743,0.0001879,53.2168,38.9588,56.5578,276.7475,0.00012507,1.704e-05,0.0,0 STARLINK-3712,1 52090U 22029C   22177.58335648  .00001704  00000-0  12507-3 0  9992,2 52090  53.2168  38.9588 0001879  56.5578 276.7475 15.08852743  1300,6917.840999999999,95.437,541.006,538.4069999999998,0.0
52090.0,STARLINK-3712,PAYLOAD,2022-06-26 22:00:00,15.08840804,0.0002002,53.2165,37.4644,50.6567,294.1688,0.00019598,2.832e-05,0.0,0 STARLINK-3712,1 52090U 22029C   22177.91667824  .00002832  00000-0  19598-3 0  9993,2 52090  53.2165  37.4644 0002002  50.6567 294.1688 15.08840804  1301,6917.878000000002,95.438,541.128,538.3580000000002,0.0
52090.0,STARLINK-3712,PAYLOAD,2022-06-27 06:00:00,15.08865565,0.0001896,53.216,35.9672,49.6359,306.7795,-0.0044918,-0.00071121,0.0,0 STARLINK-3712,1 52090U 22029C   22178.25001157 -.00071121  00000-0 -44918-2 0  9994,2 52090  53.2160  35.9672 0001896  49.6359 306.7795 15.08865565 16628,6917.802,95.436,540.979,538.356,0.0
52090.0,STARLINK-3712,PAYLOAD,2022-06-27 14:00:01,15.08816967,0.0001783,53.2162,34.4699,55.44600000000001,312.5652,0.0021469,0.00034024,0.0,0 STARLINK-3712,1 52090U 22029C   22178.58334491  .00034024  00000-0  21469-2 0  9995,2 52090  53.2162  34.4699 0001783  55.4460 312.5652 15.08816967  1304,6917.951,95.439,541.049,538.582,0.0
52090.0,STARLINK-3712,PAYLOAD,2022-06-27 22:00:00,15.08828109,0.000197,53.216,32.9754,50.3557,329.2371,0.0003433,5.178e-05,0.0,0 STARLINK-3712,1 52090U 22029C   22178.91667824  .00005178  00000-0  34330-3 0  9991,2 52090  53.2160  32.9754 0001970  50.3557 329.2371 15.08828109 16733,6917.917,95.438,541.145,538.419,0.0
52090.0,STARLINK-3712,PAYLOAD,2022-06-28 14:00:01,15.08845799,0.0001818,53.2159,29.9807,55.5408,347.2197,-0.0011383,-0.00018362,0.0,0 STARLINK-3712,1 52090U 22029C   22179.58334491 -.00018362  00000-0 -11383-2 0  9999,2 52090  53.2159  29.9807 0001818  55.5408 347.2197 15.08845799  1306,6917.863,95.437,540.985,538.47,0.0
52090.0,STARLINK-3712,PAYLOAD,2022-06-28 22:00:00,15.08810881,0.0001951,53.2158,28.4861,49.2971,5.0631,0.00054007,8.311e-05,0.0,0 STARLINK-3712,1 52090U 22029C   22179.91667824  .00008311  00000-0  54007-3 0  9997,2 52090  53.2158  28.4861 0001951  49.2971   5.0631 15.08810881  1308,6917.969,95.439,541.184,538.485,0.0
52090.0,STARLINK-3712,PAYLOAD,2022-06-29 06:00:00,15.08835805,0.0001876,53.2158,26.9885,49.6869,16.2338,-0.0018344,-0.00029361,0.0,0 STARLINK-3712,1 52090U 22029C   22180.25001157 -.00029361  00000-0 -18344-2 0  9990,2 52090  53.2158  26.9885 0001876  49.6869  16.2338 15.08835805 16939,6917.893,95.438,541.056,538.46,0.0
